{
  "type": "FeatureCollection",
  "features": [
    {
      "type": "Feature",
      "properties": {
        "norad_id": 37238,
        "name": "INTELSAT 17 (IS-17)",
        "group": "intelsat",
        "lat": -0.01064617237205225,
        "lon": -79.03562791708568,
        "alt_km": 35776.45027545948,
        "timestamp": "2025-12-11T08:58:26.782362+00:00",
        "meta_object_name": "INTELSAT 17 (IS-17)",
        "meta_object_id": "2010-065B",
        "meta_epoch": "2025-12-11T03:33:12.001248",
        "meta_mean_motion": 1.00270919,
        "meta_eccentricity": 0.0002478,
        "meta_inclination": 0.0096,
        "meta_ra_of_asc_node": 287.8523,
        "meta_arg_of_pericenter": 333.2966,
        "meta_mean_anomaly": 298.2763,
        "meta_ephemeris_type": 0,
        "meta_classification_type": "U",
        "meta_norad_cat_id": 37238,
        "meta_element_set_no": 999,
        "meta_rev_at_epoch": 5136,
        "meta_bstar": 0,
        "meta_mean_motion_dot": 4e-08,
        "meta_mean_motion_ddot": 0,
        "tle_line1": "1 37238U 10065B   25345.14805557  .00000004  00000+0  00000+0 0  9991",
        "tle_line2": "2 37238   0.0096 287.8523 0002478 333.2966 298.2763  1.00270919 51369"
      },
      "geometry": {
        "type": "Point",
        "coordinates": [
          -79.03562791708568,
          -0.01064617237205225
        ]
      }
    },
    {
      "type": "Feature",
      "properties": {
        "norad_id": 37392,
        "name": "INTELSAT 28 (IS-28)",
        "group": "intelsat",
        "lat": 1.3010513170366098,
        "lon": -176.7932530995072,
        "alt_km": 35783.68373599923,
        "timestamp": "2025-12-11T08:58:26.782374+00:00",
        "meta_object_name": "INTELSAT 28 (IS-28)",
        "meta_object_id": "2011-016A",
        "meta_epoch": "2025-12-11T03:05:14.675712",
        "meta_mean_motion": 1.00272049,
        "meta_eccentricity": 0.00039,
        "meta_inclination": 1.3208,
        "meta_ra_of_asc_node": 85.0765,
        "meta_arg_of_pericenter": 180.6237,
        "meta_mean_anomaly": 189.0086,
        "meta_ephemeris_type": 0,
        "meta_classification_type": "U",
        "meta_norad_cat_id": 37392,
        "meta_element_set_no": 999,
        "meta_rev_at_epoch": 5140,
        "meta_bstar": 0,
        "meta_mean_motion_dot": -2.19e-06,
        "meta_mean_motion_ddot": 0,
        "tle_line1": "1 37392U 11016A   25345.12864208 -.00000219  00000+0  00000+0 0  9994",
        "tle_line2": "2 37392   1.3208  85.0765 0003900 180.6237 189.0086  1.00272049 51407"
      },
      "geometry": {
        "type": "Point",
        "coordinates": [
          -176.7932530995072,
          1.3010513170366098
        ]
      }
    },
    {
      "type": "Feature",
      "properties": {
        "norad_id": 37834,
        "name": "INTELSAT 18 (IS-18)",
        "group": "intelsat",
        "lat": 0.028452677215171127,
        "lon": 34.95429692586826,
        "alt_km": 35791.4081132888,
        "timestamp": "2025-12-11T08:58:26.782386+00:00",
        "meta_object_name": "INTELSAT 18 (IS-18)",
        "meta_object_id": "2011-056A",
        "meta_epoch": "2025-12-11T02:22:56.229024",
        "meta_mean_motion": 1.00270777,
        "meta_eccentricity": 0.0001946,
        "meta_inclination": 0.0159,
        "meta_ra_of_asc_node": 293.7648,
        "meta_arg_of_pericenter": 333.2866,
        "meta_mean_anomaly": 28.7422,
        "meta_ephemeris_type": 0,
        "meta_classification_type": "U",
        "meta_norad_cat_id": 37834,
        "meta_element_set_no": 999,
        "meta_rev_at_epoch": 5192,
        "meta_bstar": 0,
        "meta_mean_motion_dot": 5.8e-07,
        "meta_mean_motion_ddot": 0,
        "tle_line1": "1 37834U 11056A   25345.09926191  .00000058  00000+0  00000+0 0  9995",
        "tle_line2": "2 37834   0.0159 293.7648 0001946 333.2866  28.7422  1.00270777 51925"
      },
      "geometry": {
        "type": "Point",
        "coordinates": [
          34.95429692586826,
          0.028452677215171127
        ]
      }
    },
    {
      "type": "Feature",
      "properties": {
        "norad_id": 38098,
        "name": "INTELSAT 22 (IS-22)",
        "group": "intelsat",
        "lat": -0.018320059527378748,
        "lon": -72.92811567337388,
        "alt_km": 35779.45805401476,
        "timestamp": "2025-12-11T08:58:26.782398+00:00",
        "meta_object_name": "INTELSAT 22 (IS-22)",
        "meta_object_id": "2012-011A",
        "meta_epoch": "2025-12-11T01:52:12.726912",
        "meta_mean_motion": 1.00270968,
        "meta_eccentricity": 0.0001719,
        "meta_inclination": 0.0033,
        "meta_ra_of_asc_node": 354.8921,
        "meta_arg_of_pericenter": 272.6322,
        "meta_mean_anomaly": 272.6955,
        "meta_ephemeris_type": 0,
        "meta_classification_type": "U",
        "meta_norad_cat_id": 38098,
        "meta_element_set_no": 999,
        "meta_rev_at_epoch": 530,
        "meta_bstar": 0,
        "meta_mean_motion_dot": -5.3e-07,
        "meta_mean_motion_ddot": 0,
        "tle_line1": "1 38098U 12011A   25345.07792508 -.00000053  00000+0  00000+0 0  9997",
        "tle_line2": "2 38098   0.0033 354.8921 0001719 272.6322 272.6955  1.00270968  5307"
      },
      "geometry": {
        "type": "Point",
        "coordinates": [
          -72.92811567337388,
          -0.018320059527378748
        ]
      }
    },
    {
      "type": "Feature",
      "properties": {
        "norad_id": 38356,
        "name": "INTELSAT 19 (IS-19)",
        "group": "intelsat",
        "lat": 0.01860897567576714,
        "lon": 20.987638983488175,
        "alt_km": 35791.640026836,
        "timestamp": "2025-12-11T08:58:26.782410+00:00",
        "meta_object_name": "INTELSAT 19 (IS-19)",
        "meta_object_id": "2012-030A",
        "meta_epoch": "2025-12-11T05:17:38.740992",
        "meta_mean_motion": 1.00272125,
        "meta_eccentricity": 0.0003469,
        "meta_inclination": 0.0092,
        "meta_ra_of_asc_node": 339.326,
        "meta_arg_of_pericenter": 289.0605,
        "meta_mean_anomaly": 57.2169,
        "meta_ephemeris_type": 0,
        "meta_classification_type": "U",
        "meta_norad_cat_id": 38356,
        "meta_element_set_no": 999,
        "meta_rev_at_epoch": 4856,
        "meta_bstar": 0,
        "meta_mean_motion_dot": -5e-07,
        "meta_mean_motion_ddot": 0,
        "tle_line1": "1 38356U 12030A   25345.22058728 -.00000050  00000+0  00000+0 0  9998",
        "tle_line2": "2 38356   0.0092 339.3260 0003469 289.0605  57.2169  1.00272125 48569"
      },
      "geometry": {
        "type": "Point",
        "coordinates": [
          20.987638983488175,
          0.01860897567576714
        ]
      }
    },
    {
      "type": "Feature",
      "properties": {
        "norad_id": 38740,
        "name": "INTELSAT 20 (IS-20)",
        "group": "intelsat",
        "lat": -0.0013731134105771973,
        "lon": -76.51499077526319,
        "alt_km": 35788.071207227695,
        "timestamp": "2025-12-11T08:58:26.782422+00:00",
        "meta_object_name": "INTELSAT 20 (IS-20)",
        "meta_object_id": "2012-043A",
        "meta_epoch": "2025-12-11T02:03:38.556288",
        "meta_mean_motion": 1.00271347,
        "meta_eccentricity": 0.0002797,
        "meta_inclination": 0.0063,
        "meta_ra_of_asc_node": 85.143,
        "meta_arg_of_pericenter": 99.0256,
        "meta_mean_anomaly": 355.3044,
        "meta_ephemeris_type": 0,
        "meta_classification_type": "U",
        "meta_norad_cat_id": 38740,
        "meta_element_set_no": 999,
        "meta_rev_at_epoch": 4886,
        "meta_bstar": 0,
        "meta_mean_motion_dot": -1.9e-07,
        "meta_mean_motion_ddot": 0,
        "tle_line1": "1 38740U 12043A   25345.08586292 -.00000019  00000+0  00000+0 0  9990",
        "tle_line2": "2 38740   0.0063  85.1430 0002797  99.0256 355.3044  1.00271347 48865"
      },
      "geometry": {
        "type": "Point",
        "coordinates": [
          -76.51499077526319,
          -0.0013731134105771973
        ]
      }
    },
    {
      "type": "Feature",
      "properties": {
        "norad_id": 38749,
        "name": "INTELSAT 21 (IS-21)",
        "group": "intelsat",
        "lat": 0.017668289567408894,
        "lon": 156.91271379271848,
        "alt_km": 35788.44154474944,
        "timestamp": "2025-12-11T08:58:26.782434+00:00",
        "meta_object_name": "INTELSAT 21 (IS-21)",
        "meta_object_id": "2012-045A",
        "meta_epoch": "2025-12-11T02:57:45.393120",
        "meta_mean_motion": 1.00269979,
        "meta_eccentricity": 0.0002071,
        "meta_inclination": 0.0201,
        "meta_ra_of_asc_node": 57.3275,
        "meta_arg_of_pericenter": 201.6078,
        "meta_mean_anomaly": 167.587,
        "meta_ephemeris_type": 0,
        "meta_classification_type": "U",
        "meta_norad_cat_id": 38749,
        "meta_element_set_no": 999,
        "meta_rev_at_epoch": 4863,
        "meta_bstar": 0,
        "meta_mean_motion_dot": -2.79e-06,
        "meta_mean_motion_ddot": 0,
        "tle_line1": "1 38749U 12045A   25345.12344205 -.00000279  00000+0  00000+0 0  9990",
        "tle_line2": "2 38749   0.0201  57.3275 0002071 201.6078 167.5870  1.00269979 48637"
      },
      "geometry": {
        "type": "Point",
        "coordinates": [
          156.91271379271848,
          0.017668289567408894
        ]
      }
    }
  ]
}